[Satellite]
VERSION=1.1
NAME=ZHUHAI-1 03B
NICKNAME=ZHUHAI-1 03B
TLE1=1 44536U 19060C   19279.45792005  .00000758  00000-0  40871-4 0  9992
TLE2=2 44536  97.4036  29.7274 0010663 245.4831 178.1827 15.17705576  2614
STATUS=0
